STARLINK-1302
1 25375C 20019R   21325.12308193  .00003978  00000-0  26645-3 0  3252
2 25375  53.0552  12.6876 0001583  67.5991 191.5174 15.06405666    18
